[
  {
    "name": "KUIPER-00121",
    "noradId": "65950",
    "line1": "1 65950U 25228D   26173.47597466  .00002106  00000+0  30511-3 0  9992",
    "line2": "2 65950  51.8989 249.7243 0000382  91.1153 268.9853 14.79939029 38859"
  },
  {
    "name": "KUIPER-00122",
    "noradId": "65951",
    "line1": "1 65951U 25228E   26173.66777841  .00002204  00000+0  31795-3 0  9995",
    "line2": "2 65951  51.8986 258.8506 0000485  96.5414 263.5604 14.79938394 38740"
  },
  {
    "name": "KUIPER-00123",
    "noradId": "65952",
    "line1": "1 65952U 25228F   26173.76908248  .00000261  00000+0  63177-4 0  9995",
    "line2": "2 65952  51.8979 258.4157 0000222  75.5349 284.5638 14.79929674 38756"
  },
  {
    "name": "KUIPER-00124",
    "noradId": "65953",
    "line1": "1 65953U 25228G   26173.50704793 -.00000062  00000+0  20878-4 0  9998",
    "line2": "2 65953  51.8967 252.0619 0000508 105.6301 254.4718 14.79931855 38824"
  },
  {
    "name": "KUIPER-00125",
    "noradId": "65954",
    "line1": "1 65954U 25228H   26173.45570222  .00000521  00000+0  97318-4 0  9993",
    "line2": "2 65954  51.9002 237.3313 0000490 106.2615 253.8401 14.79933423 39026"
  },
  {
    "name": "KUIPER-00126",
    "noradId": "65955",
    "line1": "1 65955U 25228J   26173.46789465 -.00000649  00000+0 -56110-4 0  9994",
    "line2": "2 65955  51.8982 257.2652 0000372  96.1929 263.9076 14.79931662 38745"
  },
  {
    "name": "KUIPER-00127",
    "noradId": "65956",
    "line1": "1 65956U 25228K   26172.91883519  .00006218  00000+0  84324-3 0  9992",
    "line2": "2 65956  51.8999 252.1598 0001110 104.2873 255.8213 14.79963556 38770"
  },
  {
    "name": "KUIPER-00128",
    "noradId": "65957",
    "line1": "1 65957U 25228L   26173.50974095  .00002012  00000+0  29281-3 0  9998",
    "line2": "2 65957  51.9003 249.6127 0000506 103.6349 256.4669 14.79931425 38857"
  },
  {
    "name": "KUIPER-00129",
    "noradId": "65958",
    "line1": "1 65958U 25228M   26173.54891100  .00001948  00000+0  28441-3 0  9992",
    "line2": "2 65958  51.8995 244.4213 0000458 100.6892 259.4122 14.79933974 38939"
  },
  {
    "name": "KUIPER-00130",
    "noradId": "65959",
    "line1": "1 65959U 25228N   26173.51244863  .00001983  00000+0  28905-3 0  9992",
    "line2": "2 65959  51.9010 247.1105 0000375 103.5167 256.5838 14.79933424 29183"
  },
  {
    "name": "KUIPER-00134",
    "noradId": "65960",
    "line1": "1 65960U 25228P   26173.70847088  .00025144  00000+0  60047-3 0  9991",
    "line2": "2 65960  51.8713 170.4749 0006605 337.5564  22.5135 15.41345352 39974"
  },
  {
    "name": "KUIPER-00135",
    "noradId": "65961",
    "line1": "1 65961U 25228Q   26173.47869143  .00000811  00000+0  13532-3 0  9993",
    "line2": "2 65961  51.9024 247.3165 0000497 105.1958 254.9059 14.79933741 38886"
  },
  {
    "name": "KUIPER-00136",
    "noradId": "65962",
    "line1": "1 65962U 25228R   26173.44760455  .00000276  00000+0  65251-4 0  9998",
    "line2": "2 65962  51.8992 244.9133 0000737  42.3179 317.7840 14.79926211 38916"
  },
  {
    "name": "KUIPER-00137",
    "noradId": "65963",
    "line1": "1 65963U 25228S   26173.45031820  .00000207  00000+0  56194-4 0  9997",
    "line2": "2 65963  51.9026 242.3885 0000610  89.0126 271.0906 14.79929848 38950"
  },
  {
    "name": "KUIPER-00138",
    "noradId": "65964",
    "line1": "1 65964U 25228T   26173.55428028  .00002655  00000+0  37705-3 0  9994",
    "line2": "2 65964  51.8983 239.3671 0000172 121.4069 238.6911 14.79947498 39004"
  },
  {
    "name": "KUIPER-00140",
    "noradId": "65965",
    "line1": "1 65965U 25228U   26173.48407788  .00001968  00000+0  28708-3 0  9996",
    "line2": "2 65965  51.8981 242.2650 0000487 101.4493 258.6524 14.79934786 38952"
  },
  {
    "name": "KUIPER-00141",
    "noradId": "65966",
    "line1": "1 65966U 25228V   26173.35438236  .00001875  00000+0  27494-3 0  9993",
    "line2": "2 65966  51.9020 237.8866 0000512  79.3630 280.7390 14.79927395 39004"
  },
  {
    "name": "KUIPER-00146",
    "noradId": "65967",
    "line1": "1 65967U 25228W   26173.45302084  .00001866  00000+0  27367-3 0  9995",
    "line2": "2 65967  51.9018 239.9608 0000378 102.7367 257.3637 14.79934903 38980"
  },
  {
    "name": "KUIPER-00149",
    "noradId": "65968",
    "line1": "1 65968U 25228X   26173.42462754 -.00001418  00000+0 -15706-3 0  9993",
    "line2": "2 65968  51.9003 234.9769 0000424  77.5657 282.5353 14.79928280 39056"
  },
  {
    "name": "KUIPER-00154",
    "noradId": "65969",
    "line1": "1 65969U 25228Y   26173.32603365  .00001779  00000+0  26222-3 0  9991",
    "line2": "2 65969  51.8988 232.9040 0000390  93.8176 266.2831 14.79939941 39075"
  },
  {
    "name": "KUIPER-00157",
    "noradId": "65970",
    "line1": "1 65970U 25228Z   26173.45841389  .00001925  00000+0  28145-3 0  9996",
    "line2": "2 65970  51.9014 234.9530 0000430  89.4957 270.6054 14.79935290 39054"
  },
  {
    "name": "KUIPER-00144",
    "noradId": "67133",
    "line1": "1 67133U 25301A   26172.69949101  .00000387  00000+0  79815-4 0  9999",
    "line2": "2 67133  51.9027 315.6854 0000598 102.1348 257.9682 14.79923917 29270"
  },
  {
    "name": "KUIPER-00164",
    "noradId": "67134",
    "line1": "1 67134U 25301B   26173.70634749  .00001654  00000+0  26527-3 0  9991",
    "line2": "2 67134  51.9040 323.1153 0000564 223.2644 136.8273 14.76587455 29438"
  },
  {
    "name": "KUIPER-00175",
    "noradId": "67135",
    "line1": "1 67135U 25301C   26173.38940940  .00003280  00000+0  34174-3 0  9993",
    "line2": "2 67135  51.8960 308.7084 0000889  72.6452 287.4613 14.92284950 29505"
  },
  {
    "name": "KUIPER-00179",
    "noradId": "67136",
    "line1": "1 67136U 25301D   26173.70165836  .00000413  00000+0  83179-4 0  9998",
    "line2": "2 67136  51.9003 321.2305 0000550 268.1103  91.9797 14.79936276 29467"
  },
  {
    "name": "KUIPER-00181",
    "noradId": "67137",
    "line1": "1 67137U 25301E   26173.75548775  .00017157  00000+0  22715-2 0  9991",
    "line2": "2 67137  51.9028 333.5185 0000563  97.0767 263.0259 14.79976944 29276"
  },
  {
    "name": "KUIPER-00183",
    "noradId": "67138",
    "line1": "1 67138U 25301F   26172.68831936  .00003143  00000+0  32495-3 0  9994",
    "line2": "2 67138  51.8953 312.6403 0009770  53.4863 306.7003 14.92724593 29487"
  },
  {
    "name": "KUIPER-00184",
    "noradId": "67139",
    "line1": "1 67139U 25301G   26173.67330240 -.00000427  00000+0 -27017-4 0  9996",
    "line2": "2 67139  51.8998 316.3572 0000503 110.4221 249.6795 14.79930477 29626"
  },
  {
    "name": "KUIPER-00186",
    "noradId": "67140",
    "line1": "1 67140U 25301H   26173.18171764  .00002846  00000+0  40218-3 0  9990",
    "line2": "2 67140  51.9031 336.0687 0000602 107.7584 252.3445 14.79936656 29037"
  },
  {
    "name": "KUIPER-00187",
    "noradId": "67141",
    "line1": "1 67141U 25301J   26173.71925990 -.00001019  00000+0 -10467-3 0  9994",
    "line2": "2 67141  51.9034 336.2134 0000617 111.1703 248.9326 14.79928402 29071"
  },
  {
    "name": "KUIPER-00188",
    "noradId": "67142",
    "line1": "1 67142U 25301K   26172.64008207  .00001035  00000+0  16478-3 0  9993",
    "line2": "2 67142  51.9020 308.5726 0000563 108.0425 252.0599 14.79933190 29362"
  },
  {
    "name": "KUIPER-00191",
    "noradId": "67143",
    "line1": "1 67143U 25301L   26173.69358034 -.00001029  00000+0 -10601-3 0  9993",
    "line2": "2 67143  51.9005 328.8198 0000661 102.3559 257.7477 14.79927791 29208"
  },
  {
    "name": "KUIPER-00196",
    "noradId": "67144",
    "line1": "1 67144U 25301M   26173.83335648  .00007595  00000+0  10231-2 0  9996",
    "line2": "2 67144  51.8969 284.0549 0001091  93.7607 168.2129 14.79972782  2633"
  },
  {
    "name": "KUIPER-00204",
    "noradId": "67145",
    "line1": "1 67145U 25301N   26173.62228961  .00002538  00000+0  36194-3 0  9992",
    "line2": "2 67145  51.9023 301.6222 0000415 172.1348 187.9621 14.79918522 29662"
  },
  {
    "name": "KUIPER-00210",
    "noradId": "67146",
    "line1": "1 67146U 25301P   26173.72733179  .00000079  00000+0  39316-4 0  9994",
    "line2": "2 67146  51.8997 328.6237 0000808 107.5137 252.5913 14.79936113 29356"
  },
  {
    "name": "KUIPER-00221",
    "noradId": "67147",
    "line1": "1 67147U 25301Q   26173.75302176 -.00000224  00000+0 -36542-6 0  9991",
    "line2": "2 67147  51.9017 336.0321 0000661 111.6790 248.4242 14.79930610 29081"
  },
  {
    "name": "KUIPER-00232",
    "noradId": "67148",
    "line1": "1 67148U 25301R   26173.66791150  .00000920  00000+0  14960-3 0  9994",
    "line2": "2 67148  51.9017 321.4379 0000388 132.5777 227.5218 14.79933373 29277"
  },
  {
    "name": "KUIPER-00241",
    "noradId": "67149",
    "line1": "1 67149U 25301S   26173.69089252  .00000172  00000+0  51514-4 0  9997",
    "line2": "2 67149  51.9026 331.3267 0000776 100.6812 259.4238 14.79929670 29474"
  },
  {
    "name": "KUIPER-00245",
    "noradId": "67150",
    "line1": "1 67150U 25301T   26173.75033125  .00002670  00000+0  37902-3 0  9993",
    "line2": "2 67150  51.9035 338.5760 0000604 106.7707 253.3322 14.79934420 29042"
  },
  {
    "name": "KUIPER-00246",
    "noradId": "67151",
    "line1": "1 67151U 25301U   26173.46262176  .00000800  00000+0  13398-3 0  9998",
    "line2": "2 67151  51.9014 324.8051 0000561 106.7832 253.3192 14.79932765 29238"
  },
  {
    "name": "KUIPER-00247",
    "noradId": "67152",
    "line1": "1 67152U 25301V   26173.67598346 -.00000396  00000+0 -22893-4 0  9996",
    "line2": "2 67152  51.8967 313.8417 0000943 102.8505 257.2563 14.79934761 29386"
  },
  {
    "name": "KUIPER-00248",
    "noradId": "67153",
    "line1": "1 67153U 25301W   26173.61035281  .00001380  00000+0  22618-3 0  9991",
    "line2": "2 67153  51.8989 296.5824 0001811  78.0411 282.0753 14.76645497 29788"
  },
  {
    "name": "KUIPER-00249",
    "noradId": "67154",
    "line1": "1 67154U 25301X   26173.67870225  .00002671  00000+0  37926-3 0  9995",
    "line2": "2 67154  51.9005 311.3821 0000567 110.4224 249.6799 14.79932957 29414"
  }
]